#aV2020 12  6  0  0  0.00000000     288 DD+AD WGS84 FIT  NGA
## 2135      0.00000000   300.00000000 59189 0.0000000000000
+   32     1  2  3  4  5  6  7  8  9 10 11 12 13 14 15 16 17
+         18 19 20 21 22 23 24 25 26 27 28 29 30 31 32  0  0
+          0  0  0  0  0  0  0  0  0  0  0  0  0  0  0  0  0
+          0  0  0  0  0  0  0  0  0  0  0  0  0  0  0  0  0
+          0  0  0  0  0  0  0  0  0  0  0  0  0  0  0  0  0
++         2  2  2  2  2  2  2  2  2  2  2  2  2  2  2  2  2
++         2  2  2  2  2  2  2  2  2  2  2  2  2  2  2  0  0
++         0  0  0  0  0  0  0  0  0  0  0  0  0  0  0  0  0
++         0  0  0  0  0  0  0  0  0  0  0  0  0  0  0  0  0
++         0  0  0  0  0  0  0  0  0  0  0  0  0  0  0  0  0
%c cc cc ccc ccc cccc cccc cccc cccc ccccc ccccc ccccc ccccc
%c cc cc ccc ccc cccc cccc cccc cccc ccccc ccccc ccccc ccccc
%f  0.0000000  0.000000000  0.00000000000  0.000000000000000
%f  0.0000000  0.000000000  0.00000000000  0.000000000000000
%i    0    0    0    0      0      0      0      0         0
%i    0    0    0    0      0      0      0      0         0
/*      NGA, ST. LOUIS,MO.                                  
/*   EPHEMERIS COMPUTED FROM 2 DAYS OF DATA                 
/*   EPOCHA v5 SMOOTHER                                     
/*   G1762 IERS2010 SATAF SATAPC                            
*  2020 12  6 21 30  0.00000000
P  1 -17268.679079 -13936.403706 -15079.344391    799.193739                    
V  1  18411.601288   2599.958128 -23543.804983     -0.048504                    
P  2  -5494.630476  14786.825258  22022.928721   -551.325376                    
V  2 -26163.926959  -3704.589935  -4173.630012     -0.045251                    
P  3 -13091.141753 -21712.393499   8002.507701    -23.004479                    
V  3  -1013.036691 -10458.698377 -29631.479411     -0.099785                    
P  4  -8534.633213 -12953.804504  21556.348193   -161.998247                    
V  4  19086.100131 -19630.628565  -4285.061302     -0.033869                    
P  5   1051.170939  24181.140891  10571.491914    -27.701165                    
V  5  -7442.014345 -11869.503371  27670.929657     -0.009513                    
P  6 -19919.276453   6989.642742  16204.635172     -3.375568                    
V  6 -19710.489946  -5447.003378 -21921.128492     -0.009235                    
P  7 -26029.331082  -6432.648580   1231.424617   -428.761192                    
V  7   1679.693628  -2355.950413  31202.747948     -0.074538                    
P  8   -667.821539 -18862.029674 -18559.923566     -1.965697                    
V  8  16531.993336 -17010.625274  16955.320014     -0.014123                    
P  9 -17543.634322  -1196.012840  19845.588482   -298.315892                    
V  9  15547.895482 -20078.091736  12474.355878     -0.045151                    
P 10  14189.405480  -4936.566990 -21805.536046     -9.917299                    
V 10   9070.378241  26382.997952   -327.730170     -0.088898                    
P 11  -7906.709303 -14667.279078 -21105.400282    -88.564460                    
V 11  24807.169831  -7832.104108  -4304.376937      0.105601                    
P 12   9849.581922  24157.057037   5161.702074     30.488081                    
V 12   -406.236955   7149.006219 -31094.097626     -0.051846                    
P 13  -9586.011814  20759.457688 -13549.114237     72.321209                    
V 13 -14190.011084   9613.085682  25133.293903      0.039639                    
P 14 -15198.139906   2117.084735 -21685.313211     56.008348                    
V 14  -7317.092161 -26535.924054   2536.814096      0.119840                    
P 15   4119.012308  18563.269829 -18758.521238   -185.061382                    
V 15 -15026.603047  17958.799230  15120.092980      0.025992                    
P 16   1474.686839 -24066.183980  10374.164214   -246.673662                    
V 16   5556.171249  12698.348275  28510.373005     -0.053964                    
P 17 -21048.748832  14121.671044  -7453.477090    363.617939                    
V 17   5594.069539  -8597.917738 -30348.867706      0.049789                    
P 18  26082.989909   5021.720331  -1264.024333    329.788219                    
V 18    980.594850   2881.582730  31786.639666      0.040614                    
P 19 -20151.033199  17194.728704  -1440.753467    -68.746525                    
V 19   -406.998494  -2640.168424 -32190.656489      0.050145                    
P 20  18381.108223   7235.853953 -17941.831872    525.719905                    
V 20   8507.543005  21048.572438  17005.304276     -0.001585                    
P 21  -9759.053533 -14885.245205 -19099.634954     75.183064                    
V 21  25700.109453   2041.288587 -13812.101078      0.035749                    
P 22 -10626.150071 -24433.094693   -234.923495   -719.289439                    
V 22   3470.584154   -959.369097 -31021.292508      0.058355                    
P 23  16832.798542   6465.274093 -19540.038987    107.822508                    
V 23   7320.926378  23658.022376  14124.460607      0.034040                    
P 24  13947.615789  14862.182711 -17454.717939      5.492083                    
V 24 -21705.875257  -1090.611831 -18124.364539     -0.004535                    
P 25  16089.540383  14532.304799  15280.225093     35.077798                    
V 25   4533.196177  19288.577280 -22488.360783      0.069898                    
P 26   8359.863848 -16524.203202  18908.962948     10.356780                    
V 26  10220.918243  22037.965246  14960.877268      0.059521                    
P 27  10340.448077 -22107.625539 -10180.838081    -29.318462                    
V 27  10179.271878  -8095.797244  28668.772777     -0.081187                    
P 28 -13501.143292   6153.629355 -21469.002655    646.467820                    
V 28  -6745.587457 -27781.580260  -3454.723524     -0.047998                    
P 29  16005.039440   3683.597767  20848.869622   -250.906368                    
V 29 -18427.348426  19023.277837  10722.772904     -0.075004                    
P 30 -25066.283080    940.059104  -9013.372123   -347.969315                    
V 30 -10485.135504  -5587.007418  28212.593063     -0.064058                    
P 31  18516.745623  -8271.196147  17322.477594    -85.979408                    
V 31  21061.364765   6405.546604 -18918.447813     -0.023690                    
P 32  20357.703940 -14955.344968  -7846.600678      6.220290                    
V 32  -4463.279740   9547.309831 -29608.578136      0.027820                    
EOF
